CCSDS_OMM_VERS = 2.0
CREATION_DATE  = 
ORIGINATOR     = 

OBJECT_NAME    = SL-16 R/B
OBJECT_ID      = 1992-093B
CENTER_NAME    = EARTH
REF_FRAME      = TEME
TIME_SYSTEM    = UTC
MEAN_ELEMENT_THEORY = SGP/SGP4

EPOCH          = 2025-11-13T04:53:05.077536
MEAN_MOTION    = 14.15424688
ECCENTRICITY   = .00027676
INCLINATION    = 71.0215
RA_OF_ASC_NODE = 248.7949
ARG_OF_PERICENTER = 153.4964
MEAN_ANOMALY   = 206.6301

EPHEMERIS_TYPE = 0
CLASSIFICATION_TYPE = U
NORAD_CAT_ID   = 22285
ELEMENT_SET_NO = 999
REV_AT_EPOCH   = 69667
BSTAR          = .2311084E-3
MEAN_MOTION_DOT = .404E-5
MEAN_MOTION_DDOT = 0

CCSDS_OMM_VERS = 2.0
CREATION_DATE  = 
ORIGINATOR     = 

OBJECT_NAME    = COSMOS 2228
OBJECT_ID      = 1992-094A
CENTER_NAME    = EARTH
REF_FRAME      = TEME
TIME_SYSTEM    = UTC
MEAN_ELEMENT_THEORY = SGP/SGP4

EPOCH          = 2025-11-13T04:56:11.224608
MEAN_MOTION    = 14.96536472
ECCENTRICITY   = .00172591
INCLINATION    = 82.5193
RA_OF_ASC_NODE = 348.7915
ARG_OF_PERICENTER = 339.1620
MEAN_ANOMALY   = 20.8897

EPHEMERIS_TYPE = 0
CLASSIFICATION_TYPE = U
NORAD_CAT_ID   = 22286
ELEMENT_SET_NO = 999
REV_AT_EPOCH   = 75863
BSTAR          = .5128695E-3
MEAN_MOTION_DOT = .5873E-4
MEAN_MOTION_DDOT = 0

CCSDS_OMM_VERS = 2.0
CREATION_DATE  = 
ORIGINATOR     = 

OBJECT_NAME    = SL-16 R/B
OBJECT_ID      = 1993-016B
CENTER_NAME    = EARTH
REF_FRAME      = TEME
TIME_SYSTEM    = UTC
MEAN_ELEMENT_THEORY = SGP/SGP4

EPOCH          = 2025-11-13T02:11:02.326560
MEAN_MOTION    = 14.15280709
ECCENTRICITY   = .000909
INCLINATION    = 71.0058
RA_OF_ASC_NODE = 100.0711
ARG_OF_PERICENTER = 151.7173
MEAN_ANOMALY   = 208.4445

EPHEMERIS_TYPE = 0
CLASSIFICATION_TYPE = U
NORAD_CAT_ID   = 22566
ELEMENT_SET_NO = 999
REV_AT_EPOCH   = 68567
BSTAR          = .20325527E-3
MEAN_MOTION_DOT = .348E-5
MEAN_MOTION_DDOT = 0

CCSDS_OMM_VERS = 2.0
CREATION_DATE  = 
ORIGINATOR     = 

OBJECT_NAME    = COSMOS 2242
OBJECT_ID      = 1993-024A
CENTER_NAME    = EARTH
REF_FRAME      = TEME
TIME_SYSTEM    = UTC
MEAN_ELEMENT_THEORY = SGP/SGP4

EPOCH          = 2025-11-13T06:32:56.583168
MEAN_MOTION    = 14.95935295
ECCENTRICITY   = .00157849
INCLINATION    = 82.5215
RA_OF_ASC_NODE = 18.0030
ARG_OF_PERICENTER = 341.8691
MEAN_ANOMALY   = 18.1965

EPHEMERIS_TYPE = 0
CLASSIFICATION_TYPE = U
NORAD_CAT_ID   = 22626
ELEMENT_SET_NO = 999
REV_AT_EPOCH   = 76298
BSTAR          = .48511595E-3
MEAN_MOTION_DOT = .5469E-4
MEAN_MOTION_DDOT = 0

CCSDS_OMM_VERS = 2.0
CREATION_DATE  = 
ORIGINATOR     = 

OBJECT_NAME    = SL-16 R/B
OBJECT_ID      = 1993-059B
CENTER_NAME    = EARTH
REF_FRAME      = TEME
TIME_SYSTEM    = UTC
MEAN_ELEMENT_THEORY = SGP/SGP4

EPOCH          = 2025-11-13T05:29:25.628640
MEAN_MOTION    = 14.17205989
ECCENTRICITY   = .00161924
INCLINATION    = 70.9900
RA_OF_ASC_NODE = 256.7140
ARG_OF_PERICENTER = 20.4037
MEAN_ANOMALY   = 339.7730

EPHEMERIS_TYPE = 0
CLASSIFICATION_TYPE = U
NORAD_CAT_ID   = 22803
ELEMENT_SET_NO = 999
REV_AT_EPOCH   = 66303
BSTAR          = .22426836E-3
MEAN_MOTION_DOT = .405E-5
MEAN_MOTION_DDOT = 0

CCSDS_OMM_VERS = 2.0
CREATION_DATE  = 
ORIGINATOR     = 

OBJECT_NAME    = ARIANE 40 R/B
OBJECT_ID      = 1993-061H
CENTER_NAME    = EARTH
REF_FRAME      = TEME
TIME_SYSTEM    = UTC
MEAN_ELEMENT_THEORY = SGP/SGP4

EPOCH          = 2025-11-13T05:14:03.630048
MEAN_MOTION    = 14.32774286
ECCENTRICITY   = .0009623
INCLINATION    = 98.5112
RA_OF_ASC_NODE = 23.2803
ARG_OF_PERICENTER = 268.5131
MEAN_ANOMALY   = 91.4951

EPHEMERIS_TYPE = 0
CLASSIFICATION_TYPE = U
NORAD_CAT_ID   = 22830
ELEMENT_SET_NO = 999
REV_AT_EPOCH   = 67742
BSTAR          = .25468808E-3
MEAN_MOTION_DOT = .651E-5
MEAN_MOTION_DDOT = 0

CCSDS_OMM_VERS = 2.0
CREATION_DATE  = 
ORIGINATOR     = 

OBJECT_NAME    = COSMOS 2278
OBJECT_ID      = 1994-023A
CENTER_NAME    = EARTH
REF_FRAME      = TEME
TIME_SYSTEM    = UTC
MEAN_ELEMENT_THEORY = SGP/SGP4

EPOCH          = 2025-11-13T06:08:09.646944
MEAN_MOTION    = 14.14338427
ECCENTRICITY   = .00099957
INCLINATION    = 71.0542
RA_OF_ASC_NODE = 58.6926
ARG_OF_PERICENTER = 217.2004
MEAN_ANOMALY   = 142.8427

EPHEMERIS_TYPE = 0
CLASSIFICATION_TYPE = U
NORAD_CAT_ID   = 23087
ELEMENT_SET_NO = 999
REV_AT_EPOCH   = 62834
BSTAR          = .30070806E-3
MEAN_MOTION_DOT = .528E-5
MEAN_MOTION_DDOT = 0

CCSDS_OMM_VERS = 2.0
CREATION_DATE  = 
ORIGINATOR     = 

OBJECT_NAME    = SL-16 R/B
OBJECT_ID      = 1994-023B
CENTER_NAME    = EARTH
REF_FRAME      = TEME
TIME_SYSTEM    = UTC
MEAN_ELEMENT_THEORY = SGP/SGP4

EPOCH          = 2025-11-13T06:49:54.113376
MEAN_MOTION    = 14.14992514
ECCENTRICITY   = .00013539
INCLINATION    = 70.9995
RA_OF_ASC_NODE = 315.3443
ARG_OF_PERICENTER = 162.0882
MEAN_ANOMALY   = 198.0288

EPHEMERIS_TYPE = 0
CLASSIFICATION_TYPE = U
NORAD_CAT_ID   = 23088
ELEMENT_SET_NO = 999
REV_AT_EPOCH   = 62962
BSTAR          = -.46116265E-4
MEAN_MOTION_DOT = -.137E-5
MEAN_MOTION_DDOT = 0

CCSDS_OMM_VERS = 2.0
CREATION_DATE  = 
ORIGINATOR     = 

OBJECT_NAME    = SL-16 R/B
OBJECT_ID      = 1994-074B
CENTER_NAME    = EARTH
REF_FRAME      = TEME
TIME_SYSTEM    = UTC
MEAN_ELEMENT_THEORY = SGP/SGP4

EPOCH          = 2025-11-13T02:46:48.721152
MEAN_MOTION    = 14.79239850
ECCENTRICITY   = .00053579
INCLINATION    = 97.7242
RA_OF_ASC_NODE = 347.5926
ARG_OF_PERICENTER = 233.7386
MEAN_ANOMALY   = 191.4524

EPHEMERIS_TYPE = 0
CLASSIFICATION_TYPE = U
NORAD_CAT_ID   = 23343
ELEMENT_SET_NO = 999
REV_AT_EPOCH   = 67001
BSTAR          = .17117716E-3
MEAN_MOTION_DOT = .1222E-4
MEAN_MOTION_DDOT = 0

CCSDS_OMM_VERS = 2.0
CREATION_DATE  = 
ORIGINATOR     = 

OBJECT_NAME    = SL-16 R/B
OBJECT_ID      = 1994-077B
CENTER_NAME    = EARTH
REF_FRAME      = TEME
TIME_SYSTEM    = UTC
MEAN_ELEMENT_THEORY = SGP/SGP4

EPOCH          = 2025-11-13T05:47:03.276960
MEAN_MOTION    = 14.15545309
ECCENTRICITY   = .00039959
INCLINATION    = 70.9829
RA_OF_ASC_NODE = 237.4688
ARG_OF_PERICENTER = 308.7309
MEAN_ANOMALY   = 51.3456

EPHEMERIS_TYPE = 0
CLASSIFICATION_TYPE = U
NORAD_CAT_ID   = 23405
ELEMENT_SET_NO = 999
REV_AT_EPOCH   = 59975
BSTAR          = .19164117E-3
MEAN_MOTION_DOT = .327E-5
MEAN_MOTION_DDOT = 0

CCSDS_OMM_VERS = 2.0
CREATION_DATE  = 
ORIGINATOR     = 

OBJECT_NAME    = ARIANE 40+ R/B
OBJECT_ID      = 1995-021B
CENTER_NAME    = EARTH
REF_FRAME      = TEME
TIME_SYSTEM    = UTC
MEAN_ELEMENT_THEORY = SGP/SGP4

EPOCH          = 2025-11-13T04:46:17.965920
MEAN_MOTION    = 14.39661938
ECCENTRICITY   = .00077019
INCLINATION    = 98.4686
RA_OF_ASC_NODE = 25.1398
ARG_OF_PERICENTER = 126.5164
MEAN_ANOMALY   = 293.4790

EPHEMERIS_TYPE = 0
CLASSIFICATION_TYPE = U
NORAD_CAT_ID   = 23561
ELEMENT_SET_NO = 999
REV_AT_EPOCH   = 60248
BSTAR          = .28809094E-3
MEAN_MOTION_DOT = .858E-5
MEAN_MOTION_DDOT = 0

CCSDS_OMM_VERS = 2.0
CREATION_DATE  = 
ORIGINATOR     = 

OBJECT_NAME    = SL-16 R/B
OBJECT_ID      = 1995-058B
CENTER_NAME    = EARTH
REF_FRAME      = TEME
TIME_SYSTEM    = UTC
MEAN_ELEMENT_THEORY = SGP/SGP4

EPOCH          = 2025-11-13T05:48:46.512864
MEAN_MOTION    = 14.15476840
ECCENTRICITY   = .00149125
INCLINATION    = 71.0227
RA_OF_ASC_NODE = 64.7314
ARG_OF_PERICENTER = 293.2949
MEAN_ANOMALY   = 66.6604

EPHEMERIS_TYPE = 0
CLASSIFICATION_TYPE = U
NORAD_CAT_ID   = 23705
ELEMENT_SET_NO = 999
REV_AT_EPOCH   = 55137
BSTAR          = .12147189E-4
MEAN_MOTION_DOT = -.24E-6
MEAN_MOTION_DDOT = 0

