SL-16 R/B               
1 22285U 92093B   25317.20353099  .00000404  00000+0  23111-3 0  9999
2 22285  71.0215 248.7949 0002767 153.4964 206.6301 14.15424688696679
COSMOS 2228             
1 22286U 92094A   25317.20568547  .00005873  00000+0  51287-3 0  9997
2 22286  82.5193 348.7915 0017259 339.1620  20.8897 14.96536472758635
SL-16 R/B               
1 22566U 93016B   25317.09099915  .00000348  00000+0  20326-3 0  9990
2 22566  71.0058 100.0711 0009090 151.7173 208.4445 14.15280709685673
COSMOS 2242             
1 22626U 93024A   25317.27287712  .00005469  00000+0  48512-3 0  9996
2 22626  82.5215  18.0030 0015784 341.8691  18.1965 14.95935295762986
SL-16 R/B               
1 22803U 93059B   25317.22876885  .00000405  00000+0  22427-3 0  9993
2 22803  70.9900 256.7140 0016192  20.4037 339.7730 14.17205989663038
ARIANE 40 R/B           
1 22830U 93061H   25317.21809757  .00000651  00000+0  25469-3 0  9991
2 22830  98.5112  23.2803 0009623 268.5131  91.4951 14.32774286677426
COSMOS 2278             
1 23087U 94023A   25317.25566721  .00000528  00000+0  30071-3 0  9998
2 23087  71.0542  58.6926 0009995 217.2004 142.8427 14.14338427628343
SL-16 R/B               
1 23088U 94023B   25317.28465409 -.00000137  00000+0 -46116-4 0  9999
2 23088  70.9995 315.3443 0001353 162.0882 198.0288 14.14992514629625
SL-16 R/B               
1 23343U 94074B   25317.11584168  .00001222  00000+0  17118-3 0  9998
2 23343  97.7242 347.5926 0005357 233.7386 191.4524 14.79239850670014
SL-16 R/B               
1 23405U 94077B   25317.24101015  .00000327  00000+0  19164-3 0  9998
2 23405  70.9829 237.4688 0003995 308.7309  51.3456 14.15545309599751
ARIANE 40+ R/B          
1 23561U 95021B   25317.19881905  .00000858  00000+0  28809-3 0  9993
2 23561  98.4686  25.1398 0007701 126.5164 293.4790 14.39661938602482
SL-16 R/B               
1 23705U 95058B   25317.24220501 -.00000024  00000+0  12147-4 0  9993
2 23705  71.0227  64.7314 0014912 293.2949  66.6604 14.15476840551377
